HORYU-4                 
1 41340U 16012D   19362.24820806  .00000385  00000-0  22436-4 0  9990
2 41340  31.0062 348.3547 0013956 239.3603 120.5656 15.01384372211979
E-ST@R-II               
1 41459U 16025D   19362.79629023  .00000902  00000-0  49396-4 0  9992
2 41459  98.1009  99.0301 0167734  69.5613 292.3536 15.05948585201601
AAUSAT 4                
1 41460U 16025E   19362.85174885  .00001089  00000-0  57371-4 0  9991
2 41460  98.0979 100.8544 0157190  60.1119 301.5606 15.08037652201777
DIWATA-1                
1 41463U 98067HT  19362.74814507  .00052204  12290-4  14679-3 0  9996
2 41463  51.6270 316.8971 0002615  99.0718 328.7327 15.94044777210423
BEESAT-4                
1 41619U 16040W   19362.44085610  .00001058  00000-0  47093-4 0  9992
2 41619  97.3445  60.8562 0012737  69.3871 290.8731 15.23569339183206
CANX-7                  
1 41788U 16059F   19362.72870041  .00006765  00000-0  98135-3 0  9992
2 41788  98.2521  81.6017 0030364 130.1077 230.2867 14.76045776174462
RAVAN                   
1 41849U 16067B   19362.06169313 -.00000189  00000-0 -10636-4 0  9996
2 41849  97.9276 104.1365 0009893  96.2624 263.9725 14.98413680170800
CELTEE 1                
1 41850U 16067C   19362.03606167  .00000771  00000-0  72065-4 0  9997
2 41850  97.9219 102.3223 0010506 102.0521 258.1878 14.97099478170705
OPTICUBE 04             
1 41851U 16067D   19362.07190325 -.00000238  00000-0 -15465-4 0  9997
2 41851  97.9205 102.0660 0010018 103.1969 257.0370 14.96865234170692
AEROCUBE 8D             
1 41852U 16067E   19362.21786424  .00000246  00000-0  26732-4 0  9991
2 41852  97.9212 102.0412 0010929 104.2085 256.0350 14.96811259170693
AEROCUBE 8C             
1 41853U 16067F   19362.17852091  .00000416  00000-0  41670-4 0  9998
2 41853  97.9220 101.9217 0011634 103.9985 256.2530 14.96782869170688
PROMETHEUS 2-1          
1 41854U 16067G   19362.18192888  .00000396  00000-0  39628-4 0  9998
2 41854  97.9230 102.1529 0011897 103.2002 257.0547 14.97052443170690
PROMETHEUS 2-3          
1 41855U 16067H   19362.18347068  .00000339  00000-0  34702-4 0  9996
2 41855  97.9233 102.1784 0012032 103.4909 256.7654 14.97061111170694
INS-1B                  
1 41954U 17008G   19362.71278509  .00000979  00000-0  42845-4 0  9991
2 41954  97.3780  65.0153 0009202 176.2747 183.8561 15.24365104159206
BGUSAT                  
1 41999U 17008BD  19361.75248104  .00001698  00000-0  67189-4 0  9998
2 41999  97.3875  67.3090 0007813 189.2875 170.8221 15.26803282158593
DIDO-2                  
1 42000U 17008BE  19362.45236178  .00000707  00000-0  31900-4 0  9990
2 42000  97.3792  65.3056 0007979 195.2051 164.8948 15.24195933158562
PEASSS                  
1 42015U 17008BV  19362.22443635  .00000911  00000-0  39081-4 0  9994
2 42015  97.3808  66.3551 0005741 197.1175 162.9870 15.25238840159098
AL-FARABI 1             
1 42016U 17008BW  19362.46559886  .00001215  00000-0  50086-4 0  9993
2 42016  97.3828  67.3745 0005669 194.8439 165.2634 15.25974478159293
NAYIF-1 (EO-88)         
1 42017U 17008BX  19362.71097561  .00001175  00000-0  48471-4 0  9999
2 42017  97.3824  67.6284 0005710 194.0309 166.0772 15.26011907159355
NSIGHT                  
1 42726U 98067MF  19362.81806102  .00040592  00000-0  19130-3 0  9995
2 42726  51.6321  34.2885 0000928 216.2064 143.8876 15.82667491148279
UCLSAT                  
1 42765U 17036A   19362.38347296  .00000961  00000-0  43628-4 0  9997
2 42765  97.3268  56.0357 0009708 272.2937  87.7188 15.23132322139795
LITUANICASAT-2          
1 42768U 17036D   19362.40740877  .00001582  00000-0  69259-4 0  9993
2 42768  97.3313  55.8081 0013295 260.8032  99.1701 15.23425060139641
AALTO-1                 
1 42775U 17036L   19362.82562091  .00000553  00000-0  27499-4 0  9994
2 42775  97.3245  54.7472 0012267 261.3523  98.6323 15.21591176139570
URSA MAIOR              
1 42776U 17036M   19362.30797169  .00000650  00000-0  31668-4 0  9995
2 42776  97.3258  54.4583 0012088 263.2945  96.6915 15.21747007139509
COMPASS 2               
1 42777U 17036N   19361.89482430  .00001250  00000-0  55416-4 0  9995
2 42777  97.3307  55.7685 0010773 263.9655  96.0354 15.23402174139524
DIAMOND RED             
1 42783U 17036U   19362.43546106  .00000750  00000-0  35316-4 0  9995
2 42783  97.3267  55.5223 0010416 273.7200  86.2846 15.22516221139571
PEGASUS                 
1 42784U 17036V   19361.84947491  .00000885  00000-0  40735-4 0  9992
2 42784  97.3273  55.2700 0010282 275.3097  84.6966 15.22851266139508
DIAMOND GREEN           
1 42785U 17036W   19362.43430141  .00000757  00000-0  35596-4 0  9995
2 42785  97.3270  55.5509 0010308 274.4308  85.5751 15.22517001139564
DIAMOND BLUE            
1 42786U 17036X   19362.23630302  .00000749  00000-0  35261-4 0  9995
2 42786  97.3270  55.3548 0010157 275.5925  84.4153 15.22515935139530
NUDTSAT                 
1 42787U 17036Y   19362.83256860  .00001359  00000-0  58952-4 0  9995
2 42787  97.3316  57.2573 0010507 276.0416  83.9622 15.23991949139552
SUCHAI                  
1 42788U 17036Z   19362.72026475  .00001029  00000-0  46211-4 0  9990
2 42788  97.3277  56.5595 0009839 270.2749  89.7361 15.23333839139738
SKCUBE                  
1 42789U 17036AA  19361.89623673  .00000966  00000-0  43732-4 0  9995
2 42789  97.3275  55.6557 0009718 273.8836  86.1290 15.23204005139528
VZLUSAT-1               
1 42790U 17036AB  19361.83540508  .00001307  00000-0  56845-4 0  9995
2 42790  97.3294  56.2793 0009258 272.1447  87.8730 15.23976230139555
ROBUSTA-1B              
1 42792U 17036AD  19362.39637608  .00000979  00000-0  44045-4 0  9990
2 42792  97.3276  56.3435 0009302 272.4642  87.5530 15.23384116139620
CICERO 6                
1 42793U 17036AE  19362.77671123  .00000640  00000-0  30248-4 0  9998
2 42793  97.3254  56.3232 0008579 273.5511  86.4745 15.22858524139730
D-SAT                   
1 42794U 17036AF  19362.39737155  .00000319  00000-0  33168-4 0  9992
2 42794  97.5158  38.3647 0125475 218.6239 140.5956 14.91192692137059
CORVUS BC2              
1 42846U 17042X   19362.76097661  .00000233  00000-0  28226-4 0  9993
2 42846  97.5444 248.8036 0010790 125.7007 234.5219 14.92042027133801
CORVUS BC1              
1 42847U 17042Y   19362.50004846  .00000305  00000-0  35205-4 0  9994
2 42847  97.5446 248.6925 0010425 125.6875 234.5316 14.92142799133766
MIRATA                  
1 43015U 17073C   19362.48276716  .00000673  00000-0  58316-4 0  9996
2 43015  97.7224 276.2240 0252904 249.3482 108.0448 14.79337008113791
MAKERSAT 0              
1 43016U 17073D   19362.73714910  .00000442  00000-0  40410-4 0  9998
2 43016  97.7260 276.6699 0255364 249.1760 108.1932 14.78993046113815
ASTERIA                 
1 43020U 98067NH  19362.61278568  .00050387  00000-0  24550-3 0  9995
2 43020  51.6408  47.5516 0001357  68.1276 291.9870 15.81854992120268
DELLINGR (RBLE)         
1 43021U 98067NJ  19362.79604061  .00008684  00000-0  86903-4 0  9990
2 43021  51.6378  74.2253 0001974 108.5557 251.5654 15.66479952119921
AEROCUBE 7B (OCSD B)    
1 43042U 17071F   19362.15153876  .00002698  00000-0  70998-4 0  9998
2 43042  51.6363 191.2458 0005193 132.2623 227.8804 15.42348714115777
AEROCUBE 7C (OCSD C)    
1 43043U 17071G   19362.47624206  .00002664  00000-0  70255-4 0  9993
2 43043  51.6363 189.6786 0005390 137.3253 222.8152 15.42328906115791
CHEFSAT                 
1 43044U 17071H   19362.08943773  .00005340  00000-0  11661-3 0  9993
2 43044  51.6368 182.0388 0005270 138.5300 221.6088 15.45902843115869
ASGARDIA 1              
1 43049U 17071N   19362.08932655  .00002330  00000-0  62413-4 0  9993
2 43049  51.6374 190.8966 0002880 145.2289 214.8885 15.42436658115733
ISARA                   
1 43050U 17071P   19361.97873566  .00005078  00000-0  11385-3 0  9990
2 43050  51.6352 184.2229 0002881 144.1912 215.9268 15.45229875115812
PROPCUBE 2 (FAUNA)      
1 43052U 17071R   19362.76856402  .00002509  00000-0  65714-4 0  9992
2 43052  51.6369 186.4515 0002857 144.5414 215.5762 15.42797701115852
CORVUS BC3              
1 43118U 18004H   19362.70857692  .00000583  00000-0  27733-4 0  9997
2 43118  97.4659  69.2144 0008916 299.6907  60.3442 15.23105397108858
MICROMAS-2A             
1 43131U 18004W   19362.14257547  .00001460  00000-0  61970-4 0  9999
2 43131  97.4695  69.8287 0007838 302.4385  57.6094 15.24687493108835
SPACEBEE-4              
1 43139U 18004AE  19362.50487239  .00001908  00000-0  77624-4 0  9990
2 43139  97.4719  70.9970 0007189 302.7841  57.2704 15.25746075108928
SPACEBEE-3              
1 43140U 18004AF  19362.47328697  .00002474  00000-0  97766-4 0  9998
2 43140  97.4732  71.4113 0006887 301.3122  58.7442 15.26445969108958
SPACEBEE-2              
1 43141U 18004AG  19362.48342168  .00002611  00000-0  10229-3 0  9990
2 43141  97.4742  71.5811 0006866 300.4939  59.5621 15.26682994108969
SPACEBEE-1              
1 43142U 18004AH  19361.76549283  .00002837  00000-0  11003-3 0  9999
2 43142  97.4747  71.0334 0006880 303.4379  56.6201 15.26953183108858
CICERO 7                
1 43143U 18004AJ  19361.88903704  .00001331  00000-0  56595-4 0  9999
2 43143  97.4679  69.7838 0006209 316.7442  43.3307 15.24783109108812
GOMX-4B                 
1 43196U 18015E   19361.88563069  .00000279  00000-0  14410-4 0  9995
2 43196  97.4161 127.0447 0018876 356.3311   3.7784 15.24099709105618
GOMX-4A                 
1 43197U 18015F   19362.86856711  .00000585  00000-0  26839-4 0  9992
2 43197  97.4153 128.0618 0018980 353.7259 172.7408 15.24248017105774
1KUNS-PF                
1 43466U 98067NP  19362.77018072  .00028178  00000-0  18320-3 0  9999
2 43466  51.6347  68.6770 0000831 354.0501   6.0488 15.75719685 93254
UBAKUSAT                
1 43467U 98067NQ  19362.83405277  .00013705  00000-0  12688-3 0  9995
2 43467  51.6360  79.6721 0001711  74.4787 285.6399 15.67842727 93122
